*******************************************************************************
Ephemeris / PORT_LOGIN Sun Nov 27 10:13:29 2011 Pasadena, USA    / Horizons    
*******************************************************************************
Target body name: Amalthea (505)                  {source: JUP230}
Center body name: Solar System Barycenter (0)     {source: DE405}
Center-site name: BODY CENTER
*******************************************************************************
Start time      : A.D. 2001-Jan-01 10:00:00.0000 CT 
Stop  time      : A.D. 2001-Jan-02 00:00:00.0000 CT 
Step-size       : 60 minutes
*******************************************************************************
Center geodetic : 0.00000000,0.00000000,0.0000000 {E-lon(deg),Lat(deg),Alt(km)}
Center cylindric: 0.00000000,0.00000000,0.0000000 {E-lon(deg),Dxy(km),Dz(km)}
Center radii    : (undefined)                                                  
Output units    : AU-D                                                         
Output format   : 03
Reference frame : ICRF/J2000.0                                                 
Output type     : GEOMETRIC cartesian states
Coordinate systm: Earth Mean Equator and Equinox of Reference Epoch            
*******************************************************************************
JDCT 
   X     Y     Z
   VX    VY    VZ
   LT    RG    RR
*******************************************************************************
$$SOE
2451910.916666667 = A.D. 2001-Jan-01 10:00:00.0000 (CT)
   1.788442492947258E+00  4.345323207399574E+00  1.818940602388059E+00
   5.339993931217633E-03 -5.308689104430499E-03 -2.384680300173016E-03
   2.910133778866788E-02  5.038740442051025E+00 -3.543601805794276E-03
2451910.958333333 = A.D. 2001-Jan-01 11:00:00.0000 (CT)
   1.788736636127535E+00  4.345237610508220E+00  1.818906639494032E+00
   8.119541016886998E-03  1.426793937809223E-03  8.569661950907053E-04
   2.910144367998066E-02  5.038758776563481E+00  4.422164595807270E-03
2451911.000000000 = A.D. 2001-Jan-01 12:00:00.0000 (CT)
   1.789060960764840E+00  4.345447338639088E+00  1.819014003303395E+00
   6.750844934960731E-03  8.534438669348346E-03  4.239864652725307E-03
   2.910337707427142E-02  5.039093533407789E+00  1.128695066407479E-02
2451911.041666667 = A.D. 2001-Jan-01 13:00:00.0000 (CT)
   1.789246128276339E+00  4.345926675114272E+00  1.819248919665193E+00
   1.596809868454563E-03  1.406315519055006E-02  6.835255009981683E-03
   2.910663386534858E-02  5.039657429302574E+00  1.516165702094724E-02
2451911.083333333 = A.D. 2001-Jan-01 14:00:00.0000 (CT)
   1.789160876213440E+00  4.346575911464462E+00  1.819562605654939E+00
  -5.922418495151086E-03  1.650016843711205E-02  7.932997851677498E-03
   2.911034663751637E-02  5.040300275875809E+00  1.499070636784524E-02
2451911.125000000 = A.D. 2001-Jan-01 15:00:00.0000 (CT)
   1.788748365218246E+00  4.347249285649664E+00  1.819884933020481E+00
  -1.374431405577215E-02  1.519971288704112E-02  7.242728575642510E-03
   2.911352702876214E-02  5.040850943549851E+00  1.084593750400168E-02
2451911.166666667 = A.D. 2001-Jan-01 16:00:00.0000 (CT)
   1.788040958462283E+00  4.347795547411034E+00  1.820143935097234E+00
  -1.975263616246669E-02  1.054544085977985E-02  4.966300741597417E-03
   2.911533856387227E-02  5.041164601131090E+00  3.882095119417440E-03
2451911.208333333 = A.D. 2001-Jan-01 17:00:00.0000 (CT)
   1.787150061789916E+00  4.348098964644805E+00  1.820285306707508E+00
  -2.235482602251512E-02  3.813443527362876E-03  1.727309543491476E-03
   2.911532023989374E-02  5.041161428432557E+00 -4.012171194945929E-03
2451911.250000000 = A.D. 2001-Jan-01 18:00:00.0000 (CT)
   1.786235161898033E+00  4.348109510544525E+00  1.820286553910892E+00
  -2.088216243422013E-02 -3.192096733161600E-03 -1.606459384308601E-03
   2.911350255141920E-02  5.040846705429300E+00 -1.073316816377209E-02
2451911.291666667 = A.D. 2001-Jan-01 19:00:00.0000 (CT)
   1.785461347327279E+00  4.347855164627104E+00  1.820162498460584E+00
  -1.573681774438611E-02 -8.612917635961528E-03 -4.150766268042842E-03
   2.911039327727227E-02  5.040308351299214E+00 -1.450313398399182E-02
2451911.333333333 = A.D. 2001-Jan-01 20:00:00.0000 (CT)
   1.784956173379285E+00  4.347434188302163E+00  1.819961209519795E+00
  -8.279026521056235E-03 -1.100631943716524E-02 -5.228303185967524E-03
   2.910684264655240E-02  5.039693578647422E+00 -1.431481036913924E-02
2451911.375000000 = A.D. 2001-Jan-01 21:00:00.0000 (CT)
   1.784776117855892E+00  4.346989619954450E+00  1.819751524408560E+00
  -4.878125801729457E-04 -9.714473514428076E-03 -4.542172741419209E-03
   2.910382207152068E-02  5.039170582293059E+00 -1.019314125313352E-02
2451911.416666667 = A.D. 2001-Jan-01 22:00:00.0000 (CT)
   1.784890812179692E+00  4.346671881554456E+00  1.819605044686530E+00
   5.539299513957580E-03 -5.053685564621406E-03 -2.261942443348404E-03
   2.910216817705579E-02  5.038884219343436E+00 -3.214106399214070E-03
2451911.458333333 = A.D. 2001-Jan-01 23:00:00.0000 (CT)
   1.785189788451887E+00  4.346598371496087E+00  1.819576889094851E+00
   8.146572918292763E-03  1.738262508073915E-03  1.006412821003182E-03
   2.910235492705248E-02  5.038916554103017E+00  4.749027499163984E-03
2451911.500000000 = A.D. 2001-Jan-02 00:00:00.0000 (CT)
   1.785511411304475E+00  4.346820759649388E+00  1.819690320607268E+00
   6.596995534336837E-03  8.816149341578384E-03  4.374731118167554E-03
   2.910435754863641E-02  5.039263297281574E+00  1.152189997441404E-02
$$EOE
*******************************************************************************
Coordinate system description:

  Earth Mean Equator and Equinox of Reference Epoch

    Reference epoch: J2000.0
    xy-plane: plane of the Earth's mean equator at the reference epoch
    x-axis  : out along ascending node of instantaneous plane of the Earth's
              orbit and the Earth's mean equator at the reference epoch
    z-axis  : along the Earth mean north pole at the reference epoch

Symbol meaning [1 AU=149597870.691 km, 1 day=86400.0 s]:

    JDCT     Epoch Julian Date, Coordinate Time
      X      x-component of position vector (AU)                               
      Y      y-component of position vector (AU)                               
      Z      z-component of position vector (AU)                               
      VX     x-component of velocity vector (AU/day)                           
      VY     y-component of velocity vector (AU/day)                           
      VZ     z-component of velocity vector (AU/day)                           
      LT     One-way down-leg Newtonian light-time (day)                       
      RG     Range; distance from coordinate center (AU)                       
      RR     Range-rate; radial velocity wrt coord. center (AU/day)            

Geometric states/elements have no aberration corrections applied.

 Computations by ...
     Solar System Dynamics Group, Horizons On-Line Ephemeris System
     4800 Oak Grove Drive, Jet Propulsion Laboratory
     Pasadena, CA  91109   USA
     Information: http://ssd.jpl.nasa.gov/
     Connect    : telnet://ssd.jpl.nasa.gov:6775  (via browser)
                  telnet ssd.jpl.nasa.gov 6775    (via command-line)
     Author     : Jon.Giorgini@jpl.nasa.gov
*******************************************************************************
